[{"OBJECT_NAME":"HEAD-1","OBJECT_ID":"2017-072B","EPOCH":"2026-03-10T00:09:55.710720","MEAN_MOTION":14.28734947,"ECCENTRICITY":0.0011073,"INCLINATION":98.9629,"RA_OF_ASC_NODE":84.8369,"ARG_OF_PERICENTER":82.9382,"MEAN_ANOMALY":277.3057,"EPHEMERIS_TYPE":0,"CLASSIFICATION_TYPE":"U","NORAD_CAT_ID":43011,"ELEMENT_SET_NO":999,"REV_AT_EPOCH":43319,"BSTAR":0.00021004086,"MEAN_MOTION_DOT":4.82e-6,"MEAN_MOTION_DDOT":0},{"OBJECT_NAME":"CZ-6A DEB","OBJECT_ID":"2022-151AGK","EPOCH":"2026-03-09T12:56:55.110336","MEAN_MOTION":14.35650005,"ECCENTRICITY":0.00240676,"INCLINATION":98.7225,"RA_OF_ASC_NODE":98.7112,"ARG_OF_PERICENTER":259.4738,"MEAN_ANOMALY":100.3735,"EPHEMERIS_TYPE":0,"CLASSIFICATION_TYPE":"U","NORAD_CAT_ID":56659,"ELEMENT_SET_NO":999,"REV_AT_EPOCH":15363,"BSTAR":0.0014941075,"MEAN_MOTION_DOT":4.281e-5,"MEAN_MOTION_DDOT":0}]
